[
    {
        "Altitude(m)": 612513.907499943,
        "Argument of Periapsis(deg)": 0.0,
        "Eccentricity": 0.0,
        "Inclination(deg)": 60.0,
        "Latitude(deg)": -28.135885249996647,
        "Longitude(deg)": 147.91307330683867,
        "Mean Anomaly(deg)": 212.7273,
        "RAAN(deg)": 50.0,
        "Satellite Name": "Test1 233",
        "Satellite Number": 233,
        "Semi-Major Axis(m)": 6980739.136638005,
        "Time(s)": 0
    },
    {
        "Altitude(m)": 612708.2753436685,
        "Argument of Periapsis(deg)": 0.00010418945913296404,
        "Eccentricity": 0.0,
        "Inclination(deg)": 60.0,
        "Latitude(deg)": -28.647624907098137,
        "Longitude(deg)": 148.27030252360885,
        "Mean Anomaly(deg)": 213.34740614546183,
        "RAAN(deg)": 49.99957995086026,
        "Satellite Name": "Test1 233",
        "Satellite Number": 233,
        "Semi-Major Axis(m)": 6980739.136638005,
        "Time(s)": 10
    }
]